{"fetched_at":"2026-03-30T06:02:59Z","count":15439,"tles":[{"name":"STARLINK-34643","line1":"1 64923U 25157V   26087.84932037  .00029038  00000+0  98831-3 0  9996","line2":"2 64923  53.1573 256.9251 0001011  81.8175 278.2940 15.30213450 39056","category":"Starlink"}]}