{
  "norad_id": 64923,
  "name": "STARLINK-34643",
  "history": [
    {
      "epoch": "2026-03-28T20:23:01.279968",
      "apogee_km": 475.86805440447824,
      "perigee_km": 474.48176647123455,
      "latitude_deg": 10.31383534708624,
      "longitude_deg": 33.8347555201035,
      "semi_major_axis_km": 6853.311910437857,
      "eccentricity": 0.00010114,
      "inclination_deg": 53.1573,
      "raan_deg": 256.9251,
      "arg_perigee_deg": 81.8175,
      "mean_anomaly_deg": 278.294,
      "mean_motion_rev_day": 15.3021345
    }
  ]
}